     2.100          NAVIGATION                              RINEX VERSION / TYPE
fic2rin                                 09/11/2008 04:16:55 PGM / RUN BY / DATE
                                                            END OF HEADER
 5 08  9 10  8  0  0.0  .417414121330D-04 -.213162820728D-09  .000000000000D+00
     .210000000000D+02 -.905937500000D+02  .463662170533D-08 -.232018551946D+01
    -.459887087345D-05  .927901652176D-02  .795349478722D-05  .515370076942D+04
     .288000000000D+06  .931322574615D-07  .205358816657D+01 -.819563865662D-07
     .943468701590D+00  .216468750000D+03  .127115548733D+01 -.792961601462D-08
    -.400016662300D-10  .100000000000D+01  .149600000000D+04  .000000000000D+00
     .340000000000D+01  .630000000000D+02 -.419095158577D-08  .210000000000D+02
     .280806000000D+06  .400000000000D+01
 6 08  9 10  8  0  0.0  .166920945048D-03 -.102318153949D-11  .000000000000D+00
     .120000000000D+02  .362500000000D+01  .501449458811D-08 -.244998219312D+01
     .147148966789D-06  .574605667498D-02  .845082104206D-05  .515371786308D+04
     .288000000000D+06  .109896063805D-06 -.313217826812D+01  .111758708954D-07
     .933977267148D+00  .199000000000D+03 -.158153758189D+01 -.806462163815D-08
     .396087927223D-09  .100000000000D+01  .149600000000D+04  .000000000000D+00
     .240000000000D+01  .000000000000D+00 -.465661287308D-08  .120000000000D+02
     .280806000000D+06  .400000000000D+01
 7 08  9 10  8  0  0.0  .161034986377D-04  .272848410532D-11  .000000000000D+00
     .850000000000D+02 -.398125000000D+02  .460983487527D-08 -.767672786710D-01
    -.226125121117D-05  .219271937385D-02  .299513339996D-05  .515369593620D+04
     .288000000000D+06  .931322574615D-07  .109889294971D+01 -.223517417908D-07
     .963603140087D+00  .326156250000D+03  .271400952811D+01 -.828177354054D-08
    -.173221501085D-09  .100000000000D+01  .149600000000D+04  .000000000000D+00
     .240000000000D+01  .000000000000D+00 -.107102096081D-07  .850000000000D+02
     .280806000000D+06  .400000000000D+01
 8 08  9 10  8  0  0.0 -.169376842678D-03 -.159161572810D-11  .000000000000D+00
     .176000000000D+03 -.435312500000D+02  .411195699380D-08 -.858851664905D+00
    -.238791108131D-05  .105504642706D-01  .327453017235D-05  .515371968651D+04
     .288000000000D+06  .167638063431D-07  .115388621860D+01 -.232830643654D-06
     .984752129827D+00  .329218750000D+03  .290353988553D+01 -.803890628129D-08
    -.453590322429D-10  .100000000000D+01  .149600000000D+04  .000000000000D+00
     .240000000000D+01  .000000000000D+00 -.372529029846D-08  .176000000000D+03
     .280806000000D+06  .400000000000D+01
 9 08  9 10  8  0  0.0  .142347998917D-04  .193267624127D-11  .000000000000D+00
     .660000000000D+02 -.320937500000D+02  .453804617070D-08 -.122254164285D+01
    -.136531889439D-05  .201643782202D-01  .359490513802D-05  .515366095543D+04
     .288000000000D+06 -.150874257088D-06  .106298018048D+01  .465661287308D-06
     .972626276897D+00  .315593750000D+03  .144069114127D+01 -.835249077191D-08
    -.146434671020D-09  .100000000000D+01  .149600000000D+04  .000000000000D+00
     .240000000000D+01  .000000000000D+00 -.558793544769D-08  .660000000000D+02
     .280806000000D+06  .400000000000D+01
10 08  9 10  8  0  0.0 -.469153746963D-05 -.341060513165D-12  .000000000000D+00
     .470000000000D+02  .344375000000D+02  .444661379074D-08  .248443705331D+01
     .186450779438D-05  .800362334121D-02  .883266329765D-05  .515370353508D+04
     .288000000000D+06 -.128522515297D-06 -.969887850785D+00 -.113621354103D-06
     .961966121590D+00  .210812500000D+03  .556022633946D+00 -.781425406648D-08
    -.191793703263D-09  .100000000000D+01  .149600000000D+04  .000000000000D+00
     .340000000000D+01  .000000000000D+00 -.232830643654D-08  .470000000000D+02
     .280806000000D+06  .400000000000D+01
11 08  9 10  8  0  0.0  .201161019504D-04 -.682121026330D-12  .000000000000D+00
     .860000000000D+02  .130312500000D+02  .649955644690D-08 -.408866579368D+00
     .787898898125D-06  .845711119473D-02  .525079667568D-05  .515363838768D+04
     .288000000000D+06  .912696123123D-07 -.224004961151D+01  .968575477600D-07
     .890571528062D+00  .240031250000D+03  .611311380098D+00 -.908073539194D-08
     .378587198248D-10  .100000000000D+01  .149600000000D+04  .000000000000D+00
     .240000000000D+01  .000000000000D+00 -.121071934700D-07  .860000000000D+02
     .280806000000D+06  .400000000000D+01
12 08  9 10  8  0  0.0 -.351526774466D-03  .147792889038D-11  .000000000000D+00
     .760000000000D+02 -.789687500000D+02  .427303513192D-08  .328240532421D-01
    -.413507223129D-05  .315293623134D-02  .874139368534D-05  .515353185654D+04
     .288000000000D+06  .204890966415D-07  .214941029701D+01 -.124797224998D-06
     .964679326995D+00  .217093750000D+03 -.860973763630D+00 -.790354350003D-08
    -.928610108910D-10  .100000000000D+01  .149600000000D+04  .000000000000D+00
     .240000000000D+01  .000000000000D+00 -.116415321827D-07  .760000000000D+02
     .280806000000D+06  .400000000000D+01
13 08  9 10  8  0  0.0  .270617194474D-03  .125055521494D-11  .000000000000D+00
     .690000000000D+02  .758437500000D+02  .375979946788D-08  .212974302092D+01
     .378303229809D-05  .371890852693D-02  .572018325329D-05  .515358177376D+04
     .288000000000D+06 -.596046447754D-07  .101798697924D+00 -.800937414169D-07
     .995746433179D+00  .283281250000D+03  .154747111914D+01 -.772139305559D-08
     .810748056625D-10  .100000000000D+01  .149600000000D+04  .000000000000D+00
     .240000000000D+01  .000000000000D+00 -.111758708954D-07  .690000000000D+02
     .280806000000D+06  .400000000000D+01
14 08  9 10  8  0  0.0 -.221582595259D-03  .466116034659D-11  .000000000000D+00
     .790000000000D+02  .752187500000D+02  .389266214500D-08  .190919316359D+01
     .388175249100D-05  .414483086206D-02  .555440783501D-05  .515373583603D+04
     .288000000000D+06 -.108033418655D-06  .838869030491D-01 -.108033418655D-06
     .989423080963D+00  .289125000000D+03 -.218512513050D+01 -.785532720591D-08
     .156077929844D-09  .100000000000D+01  .149600000000D+04  .000000000000D+00
     .340000000000D+01  .000000000000D+00 -.931322574615D-08  .790000000000D+02
     .280806000000D+06  .400000000000D+01
16 08  9 10  8  0  0.0  .107736326754D-03 -.204636307899D-11  .000000000000D+00
     .520000000000D+02 -.944687500000D+02  .417481675502D-08 -.257084229523D+01
    -.485591590405D-05  .472315261140D-02  .924244523048D-05  .515367160034D+04
     .288000000000D+06 -.633299350739D-07  .216595754188D+01  .838190317154D-07
     .966313289456D+00  .204781250000D+03 -.405511245091D+00 -.781603985515D-08
    -.103575742917D-10  .100000000000D+01  .149600000000D+04  .000000000000D+00
     .240000000000D+01  .000000000000D+00 -.977888703346D-08  .520000000000D+02
     .280806000000D+06  .400000000000D+01
17 08  9 10  8  0  0.0  .389018096030D-04  .113686837722D-12  .000000000000D+00
     .330000000000D+02  .475000000000D+01  .441875548747D-08  .253244141979D+01
     .346451997757D-06  .380911177490D-02  .857003033161D-05  .515358900452D+04
     .288000000000D+06 -.987201929092D-07 -.307610901421D+01 -.614672899246D-07
     .960046116220D+00  .210750000000D+03 -.278562732783D+01 -.785961309872D-08
     .392159192147D-09  .100000000000D+01  .149600000000D+04  .000000000000D+00
     .240000000000D+01  .000000000000D+00 -.102445483208D-07  .330000000000D+02
     .280806000000D+06  .400000000000D+01
18 08  9 10  8  0  0.0 -.135512091219D-03  .409272615798D-11  .000000000000D+00
     .610000000000D+02  .374687500000D+02  .477019869792D-08 -.241020800627D+01
     .179558992386D-05  .985953758936D-02  .859051942825D-05  .515371821404D+04
     .288000000000D+06  .139698386192D-06 -.960529803750D+00 -.176951289177D-06
     .946049825973D+00  .206218750000D+03 -.246697982951D+01 -.798604693662D-08
    -.169292766009D-09  .100000000000D+01  .149600000000D+04  .000000000000D+00
     .240000000000D+01  .000000000000D+00 -.107102096081D-07  .610000000000D+02
     .280806000000D+06  .400000000000D+01
19 08  9 10  8  0  0.0  .353483483195D-04  .227373675443D-12  .000000000000D+00
     .700000000000D+02  .815625000000D+01  .452554565000D-08  .201712046715D+01
     .497326254845D-06  .489483319689D-02  .838562846184D-05  .515372842216D+04
     .288000000000D+06  .409781932831D-07 -.301934248234D+01  .447034835815D-07
     .957804245466D+00  .214875000000D+03 -.499512851515D+00 -.786604193793D-08
     .304298389535D-09  .100000000000D+01  .149600000000D+04  .000000000000D+00
     .240000000000D+01  .000000000000D+00 -.144354999065D-07  .700000000000D+02
     .280806000000D+06  .400000000000D+01
20 08  9 10  8  0  0.0  .105053186417D-03 -.102318153949D-11  .000000000000D+00
     .880000000000D+02  .370312500000D+02  .482555814672D-08 -.234982021819D+01
     .191293656826D-05  .350983825047D-02  .919960439205D-05  .515377768707D+04
     .288000000000D+06  .372529029846D-07 -.101420643320D+01  .000000000000D+00
     .945556768452D+00  .193593750000D+03  .136670811900D+01 -.804104922769D-08
    -.247153152064D-09  .100000000000D+01  .149600000000D+04  .000000000000D+00
     .240000000000D+01  .000000000000D+00 -.651925802231D-08  .880000000000D+02
     .280806000000D+06  .400000000000D+01
21 08  9 10  8  0  0.0  .511892139912D-04 -.147792889038D-11  .000000000000D+00
     .820000000000D+02  .132187500000D+02  .526450500205D-08 -.121271326912D+01
     .612810254097D-06  .142742855242D-01  .567547976971D-05  .515368228531D+04
     .288000000000D+06  .288709998131D-06 -.201937891716D+01 -.135973095894D-06
     .935346773519D+00  .250468750000D+03 -.267948753461D+01 -.830927468607D-08
     .157149403046D-10  .100000000000D+01  .149600000000D+04  .000000000000D+00
     .340000000000D+01  .000000000000D+00 -.116415321827D-07  .820000000000D+02
     .280806000000D+06  .400000000000D+01
